0 H-2A R/B
1 29657U 06059B   13282.33063439  .00055535 -21214-6  16325-2 0  7634
2 29657 028.6278 325.1384 5972208 185.2192 163.2899 04.16198167 76285
0 H-2A R/B
1 29657U 06059B   13282.45191606  .00062895 -18930-6  17462-2 0  7647
2 29657 028.6175 325.0021 5973242 185.4430 345.0045 04.16222696 76282
0 H-2A R/B
1 29657U 06059B   13282.64303350  .00061203 -14944-6  17002-2 0  7653
2 29657 028.6177 324.8517 5973069 185.6871 271.3864 04.16249026 76296
0 H-2A R/B
1 29657U 06059B   13283.17259483  .00061559 -23277-7  17145-2 0  7662
2 29657 028.6174 324.4323 5972635 186.3686 344.9871 04.16312259 76311
0 H-2A R/B
1 29657U 06059B   13283.41461514  .00062441  40088-7  17415-2 0  7679
2 29657 028.6174 324.2412 5972433 186.6790 347.7210 04.16341030 76321
0 H-2A R/B
1 29657U 06059B   13283.59381587  .00063561  88465-7  17722-2 0  7686
2 29657 028.6176 324.1005 5972317 186.9076 256.3207 04.16361344 76333
0 H-2A R/B
1 29657U 06059B   13284.13172473  .00061586  23650-6  17227-2 0  7699
2 29657 028.6170 323.6746 5971873 187.5995 342.6588 04.16424655 76354
0 H-2A R/B
1 29657U 06059B   13285.33154516  .00059347  53493-6  16640-2 0  7722
2 29657 028.6160 322.7256 5971010 189.1407 341.6413 04.16560007 76402
0 H-2A R/B
1 29657U 06059B   13285.85197443  .00060453  63034-6  16945-2 0  7736
2 29657 028.6154 322.3139 5970625 189.8099 042.1472 04.16622236 76430
0 H-2A R/B
1 29657U 06059B   13286.13650160  .00059765  67046-6  16765-2 0  7740
2 29657 028.6152 322.0891 5970427 190.1746 108.9067 04.16651556 76443
0 H-2A R/B
1 29657U 06059B   13286.53925337  .00060071  71129-6  16867-2 0  7758
2 29657 028.6154 321.7691 5970105 190.6967 353.0528 04.16698552 76455
0 H-2A R/B
1 29657U 06059B   13287.49732273  .00060744  73129-6  17070-2 0  7766
2 29657 028.6156 321.0106 5969370 191.9318 350.4628 04.16807427 76496
0 H-2A R/B
1 29657U 06059B   13287.61984458  .00064220  72624-6  18013-2 0  7775
2 29657 028.6157 320.9149 5969293 192.0856 174.3121 04.16823272 76504
0 H-2A R/B
1 29657U 06059B   13288.53105725  .00066243  64263-6  18576-2 0  7781
2 29657 028.6154 320.1926 5968449 193.2628 101.8421 04.16948596 76547
0 H-2A R/B
1 29657U 06059B   13288.77385816  .00063782  60872-6  17892-2 0  7796
2 29657 028.6151 320.0005 5968217 193.5761 106.3028 04.16982485 76554
0 H-2A R/B
1 29657U 06059B   13289.17290333  .00063070  54507-6  17717-2 0  7806
2 29657 028.6151 319.6839 5967857 194.0917 345.3550 04.17030868 76567
0 H-2A R/B
1 29657U 06059B   13289.41419640  .00061047  50280-6  17173-2 0  7810
2 29657 028.6156 319.4925 5967650 194.4026 347.6204 04.17057024 76577
0 H-2A R/B
1 29657U 06059B   13289.58537880  .00061439  47147-6  17270-2 0  7827
2 29657 028.6156 319.3577 5967547 194.6204 244.6391 04.17073892 76589
0 H-2A R/B
1 29657U 06059B   13290.12986251  .00057949  36757-6  16338-2 0  7830
2 29657 028.6152 318.9255 5967036 195.3240 342.2249 04.17139452 76609
0 H-2A R/B
1 29657U 06059B   13290.36923226  .00057478  32101-6  16214-2 0  7849
2 29657 028.6151 318.7357 5966850 195.6321 341.6960 04.17164529 76612
0 H-2A R/B
1 29657U 06059B   13291.32428476  .00053876  14285-6  15256-2 0  7850
2 29657 028.6145 317.9789 5966036 196.8610 336.1728 04.17270674 76659
0 H-2A R/B
1 29657U 06059B   13291.57211576  .00053354  10096-6  15141-2 0  7869
2 29657 028.6141 317.7827 5965816 197.1797 348.4703 04.17295925 76667
0 H-2A R/B
1 29657U 06059B   13292.52848803  .00052006 -33536-7  14801-2 0  7876
2 29657 028.6137 317.0250 5965103 198.4111 345.3659 04.17391072 76709
0 H-2A R/B
1 29657U 06059B   13293.48995927  .00051336 -11539-6  14658-2 0  7886
2 29657 028.6136 316.2633 5964419 199.6504 350.2510 04.17483106 76747
0 H-2A R/B
1 29657U 06059B   13294.18034851  .00051639 -13795-6  14741-2 0  7890
2 29657 028.6140 315.7166 5963994 200.5397 307.9557 04.17549049 76778
0 H-2A R/B
1 29657U 06059B   13294.44699012  .00052477 -13857-6  15017-2 0  7904
2 29657 028.6137 315.5049 5963782 200.8842 348.7825 04.17574073 76782
0 H-2A R/B
1 29657U 06059B   13295.16246024  .00051250 -11898-6  14691-2 0  7914
2 29657 028.6139 314.9377 5963316 201.8067 344.4228 04.17641891 76811
0 H-2A R/B
1 29657U 06059B   13295.57280788  .00052076 -94597-7  14918-2 0  7922
2 29657 028.6141 314.6128 5963051 202.3329 241.4181 04.17686268 76831
